NORAD_CAT_ID,OBJECT_NAME,OBJECT_TYPE,EPOCH,MEAN_MOTION,ECCENTRICITY,INCLINATION,RA_OF_ASC_NODE,ARG_OF_PERICENTER,MEAN_ANOMALY,BSTAR,MEAN_MOTION_DOT,MEAN_MOTION_DDOT,TLE_LINE0,TLE_LINE1,TLE_LINE2,SEMIMAJOR_AXIS,PERIOD,APOGEE,PERIGEE,DECAYED
55669.0,STARLINK-5459,PAYLOAD,2024-04-04 12:01:40,14.98332163,0.0002953,69.9988,139.9787,267.3234,92.7587,-6.1953e-05,-8.32e-06,0.0,0 STARLINK-5459,1 55669U 23021AT  24095.50116833 -.00000832  00000-0 -61953-4 0  9999,2 55669  69.9988 139.9787 0002953 267.3234  92.7587 14.98332163 63807,6950.186,96.107,574.104,569.999,0.0
55669.0,STARLINK-5459,PAYLOAD,2024-04-04 20:02:20,14.98346774,0.000315,69.999,139.1371,271.425,88.6548,-0.00026707,-3.28e-05,0.0,0 STARLINK-5459,1 55669U 23021AT  24095.83496178 -.00003280  00000-0 -26707-3 0  9995,2 55669  69.9990 139.1371 0003150 271.4250  88.6548 14.98346774 63551,6950.141,96.106,574.195,569.817,0.0
55669.0,STARLINK-5459,PAYLOAD,2024-04-05 04:03:01,14.98332624,0.0003028,69.999,138.2954,269.9449,90.1363,8.4003e-05,9.09e-06,0.0,0 STARLINK-5459,1 55669U 23021AT  24096.16876352  .00000909  00000-0  84003-4 0  9995,2 55669  69.9990 138.2954 0003028 269.9449  90.1363 14.98332624 63602,6950.185,96.107,574.154,569.945,0.0
55669.0,STARLINK-5459,PAYLOAD,2024-04-05 12:03:41,14.98333337,0.000274,69.999,137.4531,262.2194,97.8654,9.7569e-05,1.071e-05,0.0,0 STARLINK-5459,1 55669U 23021AT  24096.50256200  .00001071  00000-0  97569-4 0  9999,2 55669  69.9990 137.4531 0002740 262.2194  97.8654 14.98333337 63954,6950.183,96.107,573.952,570.143,0.0
55669.0,STARLINK-5459,PAYLOAD,2024-04-05 20:04:22,14.98326144,0.0002536,69.9997,136.6117,268.3736,91.7132,2.3783e-05,1.91e-06,0.0,0 STARLINK-5459,1 55669U 23021AT  24096.83636981  .00000191  00000-0  23783-4 0  9992,2 55669  69.9997 136.6117 0002536 268.3736  91.7132 14.98326144 63709,6950.205,96.107,573.832,570.307,0.0
55669.0,STARLINK-5459,PAYLOAD,2024-04-06 12:05:43,14.98323308,0.0003014,69.9985,134.9282,268.4658,91.6156,3.4342e-05,3.17e-06,0.0,0 STARLINK-5459,1 55669U 23021AT  24097.50397141  .00000317  00000-0  34342-4 0  9992,2 55669  69.9985 134.9282 0003014 268.4658  91.6156 14.98323308 64105,6950.214,96.107,574.173,569.984,0.0
55669.0,STARLINK-5459,PAYLOAD,2024-04-06 20:06:23,14.98328988,0.0003317,69.9988,134.0864,267.193,92.885,2.748e-05,2.35e-06,0.0,0 STARLINK-5459,1 55669U 23021AT  24097.83776724  .00000235  00000-0  27480-4 0  9990,2 55669  69.9988 134.0864 0003317 267.1930  92.8850 14.98328988 63854,6950.196,96.107,574.366,569.756,0.0
55669.0,STARLINK-5459,PAYLOAD,2024-04-07 08:55:27,14.98330005,0.0003037,69.9985,132.7399,268.2178,91.8633,2.9966e-05,2.65e-06,0.0,0 STARLINK-5459,1 55669U 23021AT  24098.37184782  .00000265  00000-0  29966-4 0  9991,2 55669  69.9985 132.7399 0003037 268.2178  91.8633 14.98330005 64238,6950.193,96.107,574.169,569.947,0.0
55669.0,STARLINK-5459,PAYLOAD,2024-04-07 20:08:23,14.98332971,0.0003074,69.9985,131.5618,269.0585,91.0222,2.862e-05,2.48e-06,0.0,0 STARLINK-5459,1 55669U 23021AT  24098.83916548  .00000248  00000-0  28620-4 0  9992,2 55669  69.9985 131.5618 0003074 269.0585  91.0222 14.98332971 64006,6950.184,96.107,574.185,569.912,0.0
55669.0,STARLINK-5459,PAYLOAD,2024-04-08 12:09:44,14.98333419,0.0003276,69.9984,129.8787,271.602,88.4764,0.00013025,1.462e-05,0.0,0 STARLINK-5459,1 55669U 23021AT  24099.50676240  .00001462  00000-0  13025-3 0  9990,2 55669  69.9984 129.8787 0003276 271.6020  88.4764 14.98333419 64402,6950.182,96.107,574.324,569.77,0.0
55669.0,STARLINK-5459,PAYLOAD,2024-04-08 21:46:32,14.98333238,0.0003122,69.9985,128.8687,268.9966,91.0835,7.3119e-05,7.8e-06,0.0,0 STARLINK-5459,1 55669U 23021AT  24099.90732318  .00000780  00000-0  73119-4 0  9996,2 55669  69.9985 128.8687 0003122 268.9966  91.0835 14.98333238 64463,6950.183,96.107,574.218,569.878,0.0
55669.0,STARLINK-5459,PAYLOAD,2024-04-09 04:11:05,14.98332419,0.0003117,69.9985,128.1954,268.9583,91.1219,5.5382e-05,5.68e-06,0.0,0 STARLINK-5459,1 55669U 23021AT  24100.17436359  .00000568  00000-0  55382-4 0  9990,2 55669  69.9985 128.1954 0003117 268.9583  91.1219 14.98332419 64201,6950.185,96.107,574.217,569.884,0.0
55669.0,STARLINK-5459,PAYLOAD,2024-04-09 08:59:27,14.98416145,0.0002844,69.9986,127.6904,258.5396,101.5444,-0.0013983,-0.00016774,0.0,0 STARLINK-5459,1 55669U 23021AT  24100.37462493 -.00016774  00000-0 -13983-2 0  9997,2 55669  69.9986 127.6904 0002844 258.5396 101.5444 14.98416145 64232,6949.927,96.101,573.768,569.815,0.0
55669.0,STARLINK-5459,PAYLOAD,2024-04-10 04:13:05,14.98341597,0.0002382,69.9984,125.6702,270.8647,89.2239,-0.00018156,-2.259e-05,0.0,0 STARLINK-5459,1 55669U 23021AT  24101.17576359 -.00002259  00000-0 -18156-3 0  9994,2 55669  69.9984 125.6702 0002382 270.8647  89.2239 14.98341597 64352,6950.157,96.106,573.678,570.367,0.0
55669.0,STARLINK-5459,PAYLOAD,2024-04-10 12:13:46,14.98325185,0.0002402,69.9995,124.8287,264.7973,95.2912,-4.9764e-05,-6.87e-06,0.0,0 STARLINK-5459,1 55669U 23021AT  24101.50956995 -.00000687  00000-0 -49764-4 0  9992,2 55669  69.9995 124.8287 0002402 264.7973  95.2912 14.98325185 64406,6950.208,96.107,573.742,570.403,0.0
55669.0,STARLINK-5459,PAYLOAD,2024-04-10 18:38:18,14.98337081,0.0003158,69.9984,124.1556,269.8925,90.1872,-0.00011676,-1.486e-05,0.0,0 STARLINK-5459,1 55669U 23021AT  24101.77660173 -.00001486  00000-0 -11676-3 0  9999,2 55669  69.9984 124.1556 0003158 269.8925  90.1872 14.98337081 64449,6950.171,96.107,574.231,569.841,0.0
55669.0,STARLINK-5459,PAYLOAD,2024-04-11 10:39:39,14.98330803,0.0003075,69.9982,122.4721,268.8184,91.2623,1.9639e-05,1.41e-06,0.0,0 STARLINK-5459,1 55669U 23021AT  24102.44420249  .00000141  00000-0  19639-4 0  9995,2 55669  69.9982 122.4721 0003075 268.8184  91.2623 14.98330803 64841,6950.19,96.107,574.193,569.918,0.0
55669.0,STARLINK-5459,PAYLOAD,2024-04-11 18:40:19,14.98328737,0.0002807,69.9996,121.6296,260.9653,99.1188,4.329e-05,4.24e-06,0.0,0 STARLINK-5459,1 55669U 23021AT  24102.77800358  .00000424  00000-0  43290-4 0  9998,2 55669  69.9996 121.6296 0002807 260.9653  99.1188 14.98328737 64598,6950.197,96.107,574.013,570.111,0.0
55669.0,STARLINK-5459,PAYLOAD,2024-04-12 10:41:40,14.98328505,0.0003091,69.9982,119.9473,269.5309,90.5496,6.166e-05,6.43e-06,0.0,0 STARLINK-5459,1 55669U 23021AT  24103.44560319  .00000643  00000-0  61660-4 0  9997,2 55669  69.9982 119.9473 0003091 269.5309  90.5496 14.98328505 64993,6950.198,96.107,574.211,569.914,0.0
55669.0,STARLINK-5459,PAYLOAD,2024-04-13 04:19:08,14.98330917,0.0003129,69.998,118.0956,269.1771,90.903,4.5482e-05,4.5e-06,0.0,0 STARLINK-5459,1 55669U 23021AT  24104.17996215  .00000450  00000-0  45482-4 0  9996,2 55669  69.9980 118.0956 0003129 269.1771  90.9030 14.98330917 64806,6950.19,96.107,574.23,569.88,0.0
55669.0,STARLINK-5459,PAYLOAD,2024-04-13 10:43:40,14.98331629,0.0003125,69.9981,117.4224,269.3831,90.697,4.9334e-05,4.96e-06,0.0,0 STARLINK-5459,1 55669U 23021AT  24104.44700151  .00000496  00000-0  49334-4 0  9998,2 55669  69.9981 117.4224 0003125 269.3831  90.6970 14.98331629 65142,6950.188,96.107,574.225,569.881,0.0
55669.0,STARLINK-5459,PAYLOAD,2024-04-14 04:21:09,14.98331439,0.0003119,69.9981,115.5709,269.5197,90.5604,4.5689e-05,4.52e-06,0.0,0 STARLINK-5459,1 55669U 23021AT  24105.18136175  .00000452  00000-0  45689-4 0  9990,2 55669  69.9981 115.5709 0003119 269.5197  90.5604 14.98331439 64959,6950.188,96.107,574.221,569.886,0.0
55669.0,STARLINK-5459,PAYLOAD,2024-04-14 10:45:41,14.98330908,0.0003084,69.9983,114.8978,268.9904,91.0902,5.1582e-05,5.22e-06,0.0,0 STARLINK-5459,1 55669U 23021AT  24105.44840191  .00000522  00000-0  51582-4 0  9996,2 55669  69.9983 114.8978 0003084 268.9904  91.0902 14.98330908 65296,6950.19,96.107,574.199,569.912,0.0
55669.0,STARLINK-5459,PAYLOAD,2024-04-15 04:23:10,14.9833388,0.0003061,69.9984,113.0459,269.6191,90.4617,7.2826e-05,7.76e-06,0.0,0 STARLINK-5459,1 55669U 23021AT  24106.18275925  .00000776  00000-0  72826-4 0  9990,2 55669  69.9984 113.0459 0003061 269.6191  90.4617 14.98333880 65101,6950.181,96.107,574.173,569.918,0.0
55669.0,STARLINK-5459,PAYLOAD,2024-04-15 10:47:42,14.98333926,0.0002955,69.9985,112.3726,269.7166,90.3654,8.7487e-05,9.51e-06,0.0,0 STARLINK-5459,1 55669U 23021AT  24106.44979864  .00000951  00000-0  87487-4 0  9996,2 55669  69.9985 112.3726 0002955 269.7166  90.3654 14.98333926 65443,6950.181,96.107,574.1,569.992,0.0
55669.0,STARLINK-5459,PAYLOAD,2024-04-16 04:25:11,14.98332845,0.0003025,69.9985,110.5208,269.2556,90.8257,7.28e-05,7.76e-06,0.0,0 STARLINK-5459,1 55669U 23021AT  24107.18415938  .00000776  00000-0  72800-4 0  9993,2 55669  69.9985 110.5208 0003025 269.2556  90.8257 14.98332845 65257,6950.184,96.107,574.152,569.947,0.0
55669.0,STARLINK-5459,PAYLOAD,2024-04-16 10:49:43,14.98333402,0.0002747,69.9986,109.8473,262.0496,98.0352,7.4981e-05,8.02e-06,0.0,0 STARLINK-5459,1 55669U 23021AT  24107.45119858  .00000802  00000-0  74981-4 0  9997,2 55669  69.9986 109.8473 0002747 262.0496  98.0352 14.98333402 65590,6950.182,96.107,573.957,570.138,0.0
55669.0,STARLINK-5459,PAYLOAD,2024-04-16 17:14:15,14.98334045,0.0002933,69.9987,109.1739,268.5678,91.5145,7.8237e-05,8.41e-06,0.0,0 STARLINK-5459,1 55669U 23021AT  24107.71823813  .00000841  00000-0  78237-4 0  9990,2 55669  69.9987 109.1739 0002933 268.5678  91.5145 14.98334045 65636,6950.18,96.107,574.084,570.007,0.0
55669.0,STARLINK-5459,PAYLOAD,2024-04-17 04:27:12,14.98335246,0.0002977,69.9985,107.9954,268.2699,91.8119,6.8037e-05,7.19e-06,0.0,0 STARLINK-5459,1 55669U 23021AT  24108.18555665  .00000719  00000-0  68037-4 0  9990,2 55669  69.9985 107.9954 0002977 268.2699  91.8119 14.98335246 65400,6950.177,96.107,574.111,569.973,0.0
55669.0,STARLINK-5459,PAYLOAD,2024-04-17 09:15:36,14.98336384,0.000296,69.9984,107.4904,268.1991,91.8829,7.7947e-05,8.37e-06,0.0,0 STARLINK-5459,1 55669U 23021AT  24108.38583507  .00000837  00000-0  77947-4 0  9999,2 55669  69.9984 107.4904 0002960 268.1991  91.8829 14.98336384 65733,6950.173,96.107,574.095,569.981,0.0
